[{"OBJECT_NAME":"SARAL","OBJECT_ID":"2013-009A","EPOCH":"2026-03-09T22:48:24.420096","MEAN_MOTION":14.32828644,"ECCENTRICITY":0.00014927,"INCLINATION":98.5556,"RA_OF_ASC_NODE":256.7632,"ARG_OF_PERICENTER":179.752,"MEAN_ANOMALY":180.3665,"EPHEMERIS_TYPE":0,"CLASSIFICATION_TYPE":"U","NORAD_CAT_ID":39086,"ELEMENT_SET_NO":999,"REV_AT_EPOCH":68139,"BSTAR":7.1114041e-5,"MEAN_MOTION_DOT":1.5e-6,"MEAN_MOTION_DDOT":0},{"OBJECT_NAME":"CZ-6A DEB","OBJECT_ID":"2024-140PH","EPOCH":"2026-03-09T01:59:59.040672","MEAN_MOTION":14.26691321,"ECCENTRICITY":0.00798527,"INCLINATION":89.1217,"RA_OF_ASC_NODE":293.9414,"ARG_OF_PERICENTER":196.5243,"MEAN_ANOMALY":163.3347,"EPHEMERIS_TYPE":0,"CLASSIFICATION_TYPE":"U","NORAD_CAT_ID":61115,"ELEMENT_SET_NO":999,"REV_AT_EPOCH":8047,"BSTAR":0.0014912567,"MEAN_MOTION_DOT":3.742e-5,"MEAN_MOTION_DDOT":0}]
